[{"id":"1","name_si":"\u0d8b\u0dad\u0dd4\u0dbb\u0dd4 \u0d9a\u0ddc\u0dc5\u0db9","name_en":"COLOMBO-NORTH","code":"01A","district":"Colombo District","ed_code":"01","map_code":"1"},{"id":"2","name_si":"\u0db8\u0dd0\u0daf \u0d9a\u0ddc\u0dc5\u0db9","name_en":"COLOMBO-CENTRAL","code":"01B","district":"Colombo District","ed_code":"01","map_code":"2"},{"id":"3","name_si":"\u0db6\u0ddc\u0dbb\u0dd0\u0dbd\u0dca\u0dbd","name_en":"BORELLA","code":"01C","district":"Colombo District","ed_code":"01","map_code":"3"},{"id":"4","name_si":"\u0db1\u0dd0\u0d9c\u0dd9\u0db1\u0dc4\u0dd2\u0dbb \u0d9a\u0ddc\u0dc5\u0db9","name_en":"COLOMBO-EAST","code":"01D","district":"Colombo District","ed_code":"01","map_code":"4"},{"id":"5","name_si":"\u0db6\u0da7\u0dc4\u0dd2\u0dbb \u0d9a\u0ddc\u0dc5\u0db9","name_en":"COLOMBO-WEST","code":"01E","district":"Colombo District","ed_code":"01","map_code":"5"},{"id":"6","name_si":"\u0daf\u0dd9\u0dc4\u0dd2\u0dc0\u0dbd","name_en":"DEHIWALA","code":"01F","district":"Colombo District","ed_code":"01","map_code":"6"},{"id":"7","name_si":"\u0dbb\u0dad\u0dca\u0db8\u0dbd\u0dcf\u0db1","name_en":"RATMALANA","code":"01G","district":"Colombo District","ed_code":"01","map_code":"7"},{"id":"8","name_si":"\u0d9a\u0ddc\u0dbd\u0ddc\u0db1\u0dca\u0db1\u0dcf\u0dc0","name_en":"KOLONNAWA","code":"01H","district":"Colombo District","ed_code":"01","map_code":"8"},{"id":"9","name_si":"\u0d9a\u0ddd\u0da7\u0dca\u0da7\u0dda","name_en":"KOTTE","code":"01I","district":"Colombo District","ed_code":"01","map_code":"9"},{"id":"10","name_si":"\u0d9a\u0da9\u0dd4\u0dc0\u0dd9\u0dbd","name_en":"KADUWELA","code":"01J","district":"Colombo District","ed_code":"01","map_code":"10"},{"id":"11","name_si":"\u0d85\u0dc0\u0dd2\u0dc3\u0dca\u0dc3\u0dcf\u0dc0\u0dda\u0dbd\u0dca\u0dbd","name_en":"AVISSAWELLA","code":"01K","district":"Colombo District","ed_code":"01","map_code":"11"},{"id":"12","name_si":"\u0dc4\u0ddd\u0db8\u0dcf\u0d9c\u0db8","name_en":"HOMAGAMA","code":"01L","district":"Colombo District","ed_code":"01","map_code":"12"},{"id":"13","name_si":"\u0db8\u0dc4\u0dbb\u0d9c\u0db8","name_en":"MAHARAGAMA","code":"01M","district":"Colombo District","ed_code":"01","map_code":"13"},{"id":"14","name_si":"\u0d9a\u0dd0\u0dc3\u0dca\u0db6\u0dd1\u0dc0","name_en":"KESBEWA","code":"01N","district":"Colombo District","ed_code":"01","map_code":"14"},{"id":"15","name_si":"\u0db8\u0ddc\u0dbb\u0da7\u0dd4\u0dc0","name_en":"MORATUWA","code":"01O","district":"Colombo District","ed_code":"01","map_code":"15"},{"id":"16","name_si":"\u0d9a\u0ddc\u0dc5\u0db9 \u0daf\u0dd2\u0dc3\u0dca\u0dad\u0dca\u200d\u0dbb\u0dd2\u0d9a\u0dca\u0d9a\u0dba - \u0dad\u0dd0\u0db4\u0dd0\u0dbd\u0dca","name_en":"POSTAL VOTES - COLOMBO DISTRICT","code":"01P","district":"Colombo District","ed_code":"01","map_code":"0"},{"id":"17","name_si":"\u0d9a\u0ddc\u0dc5\u0db9 \u0daf\u0dd2\u0dc3\u0dca\u0dad\u0dca\u200d\u0dbb\u0dd2\u0d9a\u0dca\u0d9a\u0dba\u0dda \u0dc3\u0db8\u0dc3\u0dca\u0dad \u0db4\u0dca\u200d\u0dbb\u0dad\u0dd2\u0db5\u0dbd\u0dba","name_en":"FINAL DISTRICT RESULT - COLOMBO DISTRICT","code":"01Z","district":"Colombo District","ed_code":"01","map_code":"0"},{"id":"18","name_si":"\u0dc0\u0dad\u0dca\u0dad\u0dbd","name_en":"WATTALA","code":"02A","district":"Gampaha District","ed_code":"02","map_code":"16"},{"id":"19","name_si":"\u0db8\u0dd3\u0d9c\u0db8\u0dd4\u0dc0","name_en":"NEGOMBO","code":"02B","district":"Gampaha District","ed_code":"02","map_code":"17"},{"id":"20","name_si":"\u0d9a\u0da7\u0dcf\u0db1","name_en":"KATANA","code":"02C","district":"Gampaha District","ed_code":"02","map_code":"18"},{"id":"21","name_si":"\u0daf\u0dd2\u0dc0\u0dd4\u0dbd\u0db4\u0dd2\u0da7\u0dd2\u0dba","name_en":"DIVULAPITIYA","code":"02D","district":"Gampaha District","ed_code":"02","map_code":"19"},{"id":"22","name_si":"\u0db8\u0dd3\u0dbb\u0dd2\u0d9c\u0db8","name_en":"MIRIGAMA","code":"02E","district":"Gampaha District","ed_code":"02","map_code":"20"},{"id":"23","name_si":"\u0db8\u0dd2\u0db1\u0dd4\u0dc0\u0db1\u0dca\u0d9c\u0ddc\u0da9","name_en":"MINUWANGODA","code":"02F","district":"Gampaha District","ed_code":"02","map_code":"21"},{"id":"24","name_si":"\u0d85\u0dad\u0dca\u0dad\u0db1\u0d9c\u0dbd\u0dca\u0dbd","name_en":"ATTANAGALLA","code":"02G","district":"Gampaha District","ed_code":"02","map_code":"22"},{"id":"25","name_si":"\u0d9c\u0db8\u0dca\u0db4\u0dc4","name_en":"GAMPAHA","code":"02H","district":"Gampaha District","ed_code":"02","map_code":"23"},{"id":"26","name_si":"\u0da2\u0dcf-\u0d87\u0dbd","name_en":"JA-ELA","code":"02I","district":"Gampaha District","ed_code":"02","map_code":"24"},{"id":"27","name_si":"\u0db8\u0dc4\u0dbb","name_en":"MAHARA","code":"02J","district":"Gampaha District","ed_code":"02","map_code":"25"},{"id":"28","name_si":"\u0daf\u0ddc\u0db8\u0dca\u0db4\u0dda","name_en":"DOMPE","code":"02K","district":"Gampaha District","ed_code":"02","map_code":"26"},{"id":"29","name_si":"\u0db6\u0dd2\u0dba\u0d9c\u0db8","name_en":"BIYAGAMA","code":"02L","district":"Gampaha District","ed_code":"02","map_code":"27"},{"id":"30","name_si":"\u0d9a\u0dd0\u0dbd\u0dab\u0dd2\u0dba","name_en":"KELANIYA","code":"02M","district":"Gampaha District","ed_code":"02","map_code":"28"},{"id":"31","name_si":"\u0d9c\u0db8\u0dca\u0db4\u0dc4 \u0daf\u0dd2\u0dc3\u0dca\u0dad\u0dca\u200d\u0dbb\u0dd2\u0d9a\u0dca\u0d9a\u0dba - \u0dad\u0dd0\u0db4\u0dd0\u0dbd\u0dca","name_en":"POSTAL VOTES - GAMPAHA DISTRICT","code":"02P","district":"Gampaha District","ed_code":"02","map_code":"0"},{"id":"32","name_si":"\u0d9c\u0db8\u0dca\u0db4\u0dc4 \u0daf\u0dd2\u0dc3\u0dca\u0dad\u0dca\u200d\u0dbb\u0dd2\u0d9a\u0dca\u0d9a\u0dba\u0dda \u0dc3\u0db8\u0dc3\u0dca\u0dad \u0db4\u0dca\u200d\u0dbb\u0dad\u0dd2\u0db5\u0dbd\u0dba","name_en":"FINAL DISTRICT RESULT - GAMPAHA DISTRICT","code":"02Z","district":"Gampaha District","ed_code":"02","map_code":"0"},{"id":"33","name_si":"\u0db4\u0dcf\u0db1\u0daf\u0dd4\u0dbb","name_en":"PANADURA","code":"03A","district":"Kalutara District","ed_code":"03","map_code":"29"},{"id":"34","name_si":"\u0db6\u0dab\u0dca\u0da9\u200d\u0dcf\u0dbb\u0d9c\u0db8","name_en":"BANDARAGAMA","code":"03B","district":"Kalutara District","ed_code":"03","map_code":"30"},{"id":"35","name_si":"\u0dc4\u0ddc\u0dbb\u0dab ","name_en":"HORANA","code":"03C","district":"Kalutara District","ed_code":"03","map_code":"31"},{"id":"36","name_si":"\u0db6\u0dd4\u0dbd\u0dad\u0dca\u0dc3\u0dd2\u0d82\u0dc4\u0dbd ","name_en":"BULATHSINHALA","code":"03D","district":"Kalutara District","ed_code":"03","map_code":"32"},{"id":"37","name_si":"\u0db8\u0dad\u0dd4\u0d9c\u0db8 ","name_en":"MATUGAMA","code":"03E","district":"Kalutara District","ed_code":"03","map_code":"33"},{"id":"38","name_si":"\u0d9a\u0dc5\u0dd4\u0dad\u0dbb ","name_en":"KALUTARA","code":"03F","district":"Kalutara District","ed_code":"03","map_code":"34"},{"id":"39","name_si":"\u0db6\u0dda\u0dbb\u0dd4\u0dc0\u0dbd ","name_en":"BERUWALA","code":"03G","district":"Kalutara District","ed_code":"03","map_code":"35"},{"id":"40","name_si":"\u0d85\u0d9c\u0dbd\u0dc0\u0dad\u0dca\u0dad ","name_en":"AGALAWATTA","code":"03H","district":"Kalutara District","ed_code":"03","map_code":"36"},{"id":"41","name_si":"\u0d9a\u0dc5\u0dd4\u0dad\u0dbb \u0daf\u0dd2\u0dc3\u0dca\u0dad\u0dca\u200d\u0dbb\u0dd2\u0d9a\u0dca\u0d9a\u0dba - \u0dad\u0dd0\u0db4\u0dd0\u0dbd\u0dca","name_en":"POSTAL VOTES - KALUTARA DISTRICT","code":"03P","district":"Kalutara District","ed_code":"03","map_code":"0"},{"id":"42","name_si":"\u0d9a\u0dc5\u0dd4\u0dad\u0dbb \u0daf\u0dd2\u0dc3\u0dca\u0dad\u0dca\u200d\u0dbb\u0dd2\u0d9a\u0dca\u0d9a\u0dba\u0dda \u0dc3\u0db8\u0dc3\u0dca\u0dad \u0db4\u0dca\u200d\u0dbb\u0dad\u0dd2\u0db5\u0dbd\u0dba","name_en":"FINAL DISTRICT RESULT - KALUTARA DISTRICT","code":"03Z","district":"Kalutara District","ed_code":"03","map_code":"0"},{"id":"43","name_si":"\u0d9c\u0dbd\u0d9c\u0dd9\u0daf\u0dbb ","name_en":"GALAGEDARA","code":"04A","district":"Kandy District","ed_code":"04","map_code":"37"},{"id":"44","name_si":"\u0dc4\u0dcf\u0dbb\u0dd2\u0dc3\u0dca\u0db4\u0dad\u0dca\u0dad\u0dd4\u0dc0 ","name_en":"HARISPATTUWA","code":"04B","district":"Kandy District","ed_code":"04","map_code":"38"},{"id":"45","name_si":"\u0db4\u0dcf\u0dad\u0daf\u0dd4\u0db8\u0dca\u0db6\u0dbb ","name_en":"PATHA-DUMBARA","code":"04C","district":"Kandy District","ed_code":"04","map_code":"39"},{"id":"46","name_si":"\u0d8b\u0da9\u0dd4\u0daf\u0dd4\u0db8\u0dca\u0db6\u0dbb ","name_en":"UDA-DUMBARA","code":"04D","district":"Kandy District","ed_code":"04","map_code":"40"},{"id":"47","name_si":"\u0dad\u0dd9\u0dbd\u0dca\u0daf\u0dd9\u0db1\u0dd2\u0dba ","name_en":"TELDENIYA","code":"04E","district":"Kandy District","ed_code":"04","map_code":"41"},{"id":"48","name_si":"\u0d9a\u0dd4\u0dab\u0dca\u0da9\u0dc3\u0dcf\u0dbd\u0dda ","name_en":"KUNDASALE","code":"04F","district":"Kandy District","ed_code":"04","map_code":"42"},{"id":"49","name_si":"\u0dc4\u0dda\u0dc0\u0dcf\u0dc4\u0dd0\u0da7 ","name_en":"HEWAHETA","code":"04G","district":"Kandy District","ed_code":"04","map_code":"43"},{"id":"50","name_si":"\u0dc3\u0dd9\u0d82\u0d9a\u0da9\u0d9c\u0dbd ","name_en":"SENKADAGALA","code":"04H","district":"Kandy District","ed_code":"04","map_code":"44"},{"id":"51","name_si":"\u0db8\u0dc4\u0db1\u0dd4\u0dc0\u0dbb ","name_en":"MAHANUWARA","code":"04I","district":"Kandy District","ed_code":"04","map_code":"45"},{"id":"52","name_si":"\u0dba\u0da7\u0dd2\u0db1\u0dd4\u0dc0\u0dbb ","name_en":"YATINUWARA","code":"04J","district":"Kandy District","ed_code":"04","map_code":"46"},{"id":"53","name_si":"\u0d8b\u0da9\u0dd4\u0db1\u0dd4\u0dc0\u0dbb ","name_en":"UDUNUWARA","code":"04K","district":"Kandy District","ed_code":"04","map_code":"47"},{"id":"54","name_si":"\u0d9c\u0db8\u0dca\u0db4\u0ddc\u0dbd ","name_en":"GAMPOLA","code":"04L","district":"Kandy District","ed_code":"04","map_code":"48"},{"id":"55","name_si":"\u0db1\u0dcf\u0dc0\u0dbd\u0db4\u0dd2\u0da7\u0dd2\u0dba ","name_en":"NAWALAPITIYA","code":"04M","district":"Kandy District","ed_code":"04","map_code":"49"},{"id":"56","name_si":"\u0db8\u0dc4\u0db1\u0dd4\u0dc0\u0dbb \u0daf\u0dd2\u0dc3\u0dca\u0dad\u0dca\u200d\u0dbb\u0dd2\u0d9a\u0dca\u0d9a\u0dba - \u0dad\u0dd0\u0db4\u0dd0\u0dbd\u0dca","name_en":"POSTAL VOTES - KANDY DISTRICT","code":"04P","district":"Kandy District","ed_code":"04","map_code":"0"},{"id":"57","name_si":"\u0db8\u0dc4\u0db1\u0dd4\u0dc0\u0dbb \u0daf\u0dd2\u0dc3\u0dca\u0dad\u0dca\u200d\u0dbb\u0dd2\u0d9a\u0dca\u0d9a\u0dba\u0dda \u0dc3\u0db8\u0dc3\u0dca\u0dad \u0db4\u0dca\u200d\u0dbb\u0dad\u0dd2\u0db5\u0dbd\u0dba","name_en":"FINAL DISTRICT RESULT - KANDY DISTRICT","code":"04Z","district":"Kandy District","ed_code":"04","map_code":"0"},{"id":"58","name_si":"\u0daf\u0db9\u0dd4\u0dbd\u0dca\u0dbd ","name_en":"DAMBULLA","code":"05A","district":"Mathale District","ed_code":"05","map_code":"50"},{"id":"59","name_si":"\u0dbd\u0d9c\u0dca\u0d9c\u0dbd ","name_en":"LAGGALA","code":"05B","district":"Mathale District","ed_code":"05","map_code":"51"},{"id":"60","name_si":"\u0db8\u0dcf\u0dad\u0dbd\u0dda ","name_en":"MATALE","code":"05C","district":"Mathale District","ed_code":"05","map_code":"52"},{"id":"61","name_si":"\u0dbb\u0dad\u0dca\u0dad\u0ddc\u0da7 ","name_en":"RATTOTA","code":"05D","district":"Mathale District","ed_code":"05","map_code":"53"},{"id":"62","name_si":"\u0db8\u0dcf\u0dad\u0dbd\u0dda \u0daf\u0dd2\u0dc3\u0dca\u0dad\u0dca\u200d\u0dbb\u0dd2\u0d9a\u0dca\u0d9a\u0dba - \u0dad\u0dd0\u0db4\u0dd0\u0dbd\u0dca","name_en":"POSTAL VOTES - MATALE DISTRICT","code":"05P","district":"Mathale District","ed_code":"05","map_code":"0"},{"id":"63","name_si":"\u0db8\u0dcf\u0dad\u0dbd\u0dda \u0daf\u0dd2\u0dc3\u0dca\u0dad\u0dca\u200d\u0dbb\u0dd2\u0d9a\u0dca\u0d9a\u0dba\u0dda \u0dc3\u0db8\u0dc3\u0dca\u0dad \u0db4\u0dca\u200d\u0dbb\u0dad\u0dd2\u0db5\u0dbd\u0dba","name_en":"FINAL DISTRICT RESULT - MATALE DISTRICT","code":"05Z","district":"Mathale District","ed_code":"05","map_code":"0"},{"id":"64","name_si":"\u0db1\u0dd4\u0dc0\u0dbb\u0d91\u0dc5\u0dd2\u0dba-\u0db8\u0dc3\u0dca\u0d9a\u0dd9\u0dbd\u0dd2\u0dba ","name_en":"NUWARA-ELIYA-MASKELIYA","code":"06A","district":"Nuwara Eliya District","ed_code":"06","map_code":"54"},{"id":"65","name_si":"\u0d9a\u0ddc\u0dad\u0dca\u0db8\u0dbd\u0dda","name_en":"KOTMALE","code":"06B","district":"Nuwara Eliya District","ed_code":"06","map_code":"55"},{"id":"66","name_si":"\u0dc4\u0d9f\u0dd4\u0dbb\u0db1\u0dca\u0d9a\u0dd9\u0dad ","name_en":"HANGURANKETA","code":"06C","district":"Nuwara Eliya District","ed_code":"06","map_code":"56"},{"id":"67","name_si":"\u0dc0\u0dbd\u0db4\u0db1\u0dda ","name_en":"WALAPANE","code":"06D","district":"Nuwara Eliya District","ed_code":"06","map_code":"57"},{"id":"68","name_si":"\u0db1\u0dd4\u0dc0\u0dbb\u0d91\u0dc5\u0dd2\u0dba \u0daf\u0dd2\u0dc3\u0dca\u0dad\u0dca\u200d\u0dbb\u0dd2\u0d9a\u0dca\u0d9a\u0dba - \u0dad\u0dd0\u0db4\u0dd0\u0dbd\u0dca","name_en":"POSTAL VOTES - NUWARA-ELIYA DISTRICT","code":"06P","district":"Nuwara Eliya District","ed_code":"06","map_code":"0"},{"id":"69","name_si":"\u0db1\u0dd4\u0dc0\u0dbb\u0d91\u0dc5\u0dd2\u0dba \u0daf\u0dd2\u0dc3\u0dca\u0dad\u0dca\u200d\u0dbb\u0dd2\u0d9a\u0dca\u0d9a\u0dba\u0dda \u0dc3\u0db8\u0dc3\u0dca\u0dad \u0db4\u0dca\u200d\u0dbb\u0dad\u0dd2\u0db5\u0dbd\u0dba","name_en":"FINAL DISTRICT RESULT - NUWARA-ELIYA DISTRICT","code":"06Z","district":"Nuwara Eliya District","ed_code":"06","map_code":"0"},{"id":"70","name_si":"\u0db6\u0dbd\u0db4\u0dd2\u0da7\u0dd2\u0dba ","name_en":"BALAPITIYA","code":"07A","district":"Galle District","ed_code":"07","map_code":"58"},{"id":"71","name_si":"\u0d85\u0db8\u0dca\u0db6\u0dbd\u0db1\u0dca\u0d9c\u0ddc\u0da9 ","name_en":"AMBALANGODA","code":"07B","district":"Galle District","ed_code":"07","map_code":"59"},{"id":"72","name_si":"\u0d9a\u0dbb\u0db1\u0dca\u0daf\u0dd9\u0dab\u0dd2\u0dba ","name_en":"KARANDENIYA","code":"07C","district":"Galle District","ed_code":"07","map_code":"60"},{"id":"73","name_si":"\u0db6\u0dd9\u0db1\u0dca\u0dad\u0dbb-\u0d87\u0dbd\u0dca\u0db4\u0dd2\u0da7\u0dd2\u0dba ","name_en":"BENTARA-ELPITIYA","code":"07D","district":"Galle District","ed_code":"07","map_code":"61"},{"id":"74","name_si":"\u0dc4\u0dd2\u0db1\u0dd2\u0daf\u0dd4\u0db8 ","name_en":"HINIDUMA","code":"07E","district":"Galle District","ed_code":"07","map_code":"62"},{"id":"75","name_si":"\u0db6\u0daf\u0dca\u0daf\u0dd9\u0d9c\u0db8 ","name_en":"BADDEGAMA","code":"07F","district":"Galle District","ed_code":"07","map_code":"63"},{"id":"76","name_si":"\u0dbb\u0dad\u0dca\u0d9c\u0db8 ","name_en":"RATGAMA","code":"07G","district":"Galle District","ed_code":"07","map_code":"64"},{"id":"77","name_si":"\u0d9c\u0dcf\u0dbd\u0dca\u0dbd ","name_en":"GALLE","code":"07H","district":"Galle District","ed_code":"07","map_code":"65"},{"id":"78","name_si":"\u0d85\u0d9a\u0dca\u0db8\u0dd3\u0db8\u0dab ","name_en":"AKMEEMANA","code":"07I","district":"Galle District","ed_code":"07","map_code":"66"},{"id":"79","name_si":"\u0dc4\u0db6\u0dbb\u0dcf\u0daf\u0dd6\u0dc0 ","name_en":"HABARADUWA","code":"07J","district":"Galle District","ed_code":"07","map_code":"67"},{"id":"80","name_si":"\u0d9c\u0dcf\u0dbd\u0dca\u0dbd \u0daf\u0dd2\u0dc3\u0dca\u0dad\u0dca\u200d\u0dbb\u0dd2\u0d9a\u0dca\u0d9a\u0dba - \u0dad\u0dd0\u0db4\u0dd0\u0dbd\u0dca","name_en":"POSTAL VOTES - GALLE DISTRICT","code":"07P","district":"Galle District","ed_code":"07","map_code":"0"},{"id":"81","name_si":"\u0d9c\u0dcf\u0dbd\u0dca\u0dbd \u0daf\u0dd2\u0dc3\u0dca\u0dad\u0dca\u200d\u0dbb\u0dd2\u0d9a\u0dca\u0d9a\u0dba\u0dda \u0dc3\u0db8\u0dc3\u0dca\u0dad \u0db4\u0dca\u200d\u0dbb\u0dad\u0dd2\u0db5\u0dbd\u0dba","name_en":"FINAL DISTRICT RESULT - GALLE DISTRICT","code":"07Z","district":"Galle District","ed_code":"07","map_code":"0"},{"id":"82","name_si":"\u0daf\u0dd9\u0dab\u0dd2\u0dba\u0dcf\u0dba ","name_en":"DENIYAYA","code":"08A","district":"Matara District","ed_code":"08","map_code":"68"},{"id":"83","name_si":"\u0dc4\u0d9a\u0dca\u0db8\u0db1 ","name_en":"HAKMANA","code":"08B","district":"Matara District","ed_code":"08","map_code":"69"},{"id":"84","name_si":"\u0d85\u0d9a\u0dd4\u0dbb\u0dd0\u0dc3\u0dca\u0dc3 ","name_en":"AKURESSA","code":"08C","district":"Matara District","ed_code":"08","map_code":"70"},{"id":"85","name_si":"\u0d9a\u0db9\u0dd4\u0dbb\u0dd4\u0db4\u0dd2\u0da7\u0dd2\u0dba ","name_en":"KAMBURUPITIYA","code":"08D","district":"Matara District","ed_code":"08","map_code":"71"},{"id":"86","name_si":"\u0daf\u0dd9\u0dc0\u0dd2\u0db1\u0dd4\u0dc0\u0dbb","name_en":"DEVINUWARA","code":"08E","district":"Matara District","ed_code":"08","map_code":"72"},{"id":"87","name_si":"\u0db8\u0dcf\u0dad\u0dbb ","name_en":"MATARA","code":"08F","district":"Matara District","ed_code":"08","map_code":"73"},{"id":"88","name_si":"\u0dc0\u0dd0\u0dbd\u0dd2\u0d9c\u0db8 ","name_en":"WELIGAMA","code":"08G","district":"Matara District","ed_code":"08","map_code":"74"},{"id":"89","name_si":"\u0db8\u0dcf\u0dad\u0dbb \u0daf\u0dd2\u0dc3\u0dca\u0dad\u0dca\u200d\u0dbb\u0dd2\u0d9a\u0dca\u0d9a\u0dba - \u0dad\u0dd0\u0db4\u0dd0\u0dbd\u0dca","name_en":"POSTAL VOTES - MATARA DISTRICT","code":"08P","district":"Matara District","ed_code":"08","map_code":"0"},{"id":"90","name_si":"\u0db8\u0dcf\u0dad\u0dbb \u0daf\u0dd2\u0dc3\u0dca\u0dad\u0dca\u200d\u0dbb\u0dd2\u0d9a\u0dca\u0d9a\u0dba\u0dda \u0dc3\u0db8\u0dc3\u0dca\u0dad \u0db4\u0dca\u200d\u0dbb\u0dad\u0dd2\u0db5\u0dbd\u0dba","name_en":"FINAL DISTRICT RESULT - MATARA DISTRICT","code":"08Z","district":"Matara District","ed_code":"08","map_code":"0"},{"id":"91","name_si":"\u0db8\u0dd4\u0dbd\u0dca\u0d9a\u0dd2\u0dbb\u0dd2\u0d9c\u0dbd ","name_en":"MULKIRIGALA","code":"09A","district":"Hambantota District","ed_code":"09","map_code":"75"},{"id":"92","name_si":"\u0db6\u0dd9\u0dbd\u0dd2\u0d85\u0dad\u0dca\u0dad ","name_en":"BELIATTA","code":"09B","district":"Hambantota District","ed_code":"09","map_code":"76"},{"id":"93","name_si":"\u0dad\u0d82\u0d9c\u0dbd\u0dca\u0dbd ","name_en":"TANGALLE","code":"09C","district":"Hambantota District","ed_code":"09","map_code":"77"},{"id":"94","name_si":"\u0dad\u0dd2\u0dc3\u0dca\u0dc3\u0db8\u0dc4\u0dcf\u0dbb\u0dcf\u0db8 ","name_en":"TISSAMAHARAMA","code":"09D","district":"Hambantota District","ed_code":"09","map_code":"78"},{"id":"95","name_si":"\u0dc4\u0db8\u0dca\u0db6\u0db1\u0dca\u0dad\u0ddc\u0da7 \u0daf\u0dd2\u0dc3\u0dca\u0dad\u0dca\u200d\u0dbb\u0dd2\u0d9a\u0dca\u0d9a\u0dba - \u0dad\u0dd0\u0db4\u0dd0\u0dbd\u0dca","name_en":"POSTAL VOTES - HAMBANTOTA DISTRICT","code":"09P","district":"Hambantota District","ed_code":"09","map_code":"0"},{"id":"96","name_si":"\u0dc4\u0db8\u0dca\u0db6\u0db1\u0dca\u0dad\u0ddc\u0da7 \u0daf\u0dd2\u0dc3\u0dca\u0dad\u0dca\u200d\u0dbb\u0dd2\u0d9a\u0dca\u0d9a\u0dba\u0dda \u0dc3\u0db8\u0dc3\u0dca\u0dad \u0db4\u0dca\u200d\u0dbb\u0dad\u0dd2\u0db5\u0dbd\u0dba","name_en":"FINAL DISTRICT RESULT - HAMBANTOTA DISTRICT","code":"09Z","district":"Hambantota District","ed_code":"09","map_code":"0"},{"id":"97","name_si":"\u0d9a\u0dba\u0dd2\u0da7\u0dca\u0dc3\u0dca ","name_en":"KAYTS","code":"10A","district":"Jaffna District","ed_code":"10","map_code":"79"},{"id":"98","name_si":"\u0dc0\u0da9\u0dd4\u0d9a\u0dca\u0d9a\u0ddc\u0da9\u0dda ","name_en":"VADDUKKODDAI","code":"10B","district":"Jaffna District","ed_code":"10","map_code":"80"},{"id":"99","name_si":"\u0d9a\u0db1\u0dca\u0d9a\u0dc3\u0db1\u0dca\u0dad\u0dd4\u0dbb\u0dba ","name_en":"KANKESANTURAI","code":"10C","district":"Jaffna District","ed_code":"10","map_code":"81"},{"id":"100","name_si":"\u0db8\u0db1\u0dd2\u0db4\u0dcf\u0dba\u0dd2","name_en":"MANIPAY","code":"10D","district":"Jaffna District","ed_code":"10","map_code":"82"},{"id":"101","name_si":"\u0d9a\u0ddd\u0db4\u0dcf\u0dba\u0dd2","name_en":"KOPAY","code":"10E","district":"Jaffna District","ed_code":"10","map_code":"83"},{"id":"102","name_si":"\u0d8b\u0da9\u0dd4\u0db4\u0dca\u0db4\u0dd2\u0da9\u0dd2","name_en":"UDUPIDDY","code":"10F","district":"Jaffna District","ed_code":"10","map_code":"84"},{"id":"103","name_si":"\u0db4\u0dda\u0daf\u0dd4\u0dbb\u0dd4 \u0dad\u0dd4\u0da9\u0dd4\u0dc0 ","name_en":"POINT PEDRO","code":"10G","district":"Jaffna District","ed_code":"10","map_code":"85"},{"id":"104","name_si":"\u0da0\u0dcf\u0dc0\u0d9a\u0da0\u0dca\u0da0\u0dda\u0dbb\u0dd2","name_en":"CHAVAKACHCHERI","code":"10H","district":"Jaffna District","ed_code":"10","map_code":"86"},{"id":"105","name_si":"\u0db1\u0dbd\u0dca\u0dbd\u0dd6\u0dbb\u0dca ","name_en":"NALLUR","code":"10I","district":"Jaffna District","ed_code":"10","map_code":"87"},{"id":"106","name_si":"\u0dba\u0dcf\u0db4\u0db1\u0dba ","name_en":"JAFFNA","code":"10J","district":"Jaffna District","ed_code":"10","map_code":"88"},{"id":"107","name_si":"\u0d9a\u0dd2\u0dbd\u0dd2\u0db1\u0ddc\u0da0\u0dca\u0da0\u0dd2\u0dba ","name_en":"KILINOCHCHI","code":"10K","district":"Jaffna District","ed_code":"10","map_code":"89"},{"id":"108","name_si":"\u0dba\u0dcf\u0db4\u0db1\u0dba \u0daf\u0dd2\u0dc3\u0dca\u0dad\u0dca\u200d\u0dbb\u0dd2\u0d9a\u0dca\u0d9a\u0dba - \u0dad\u0dd0\u0db4\u0dd0\u0dbd\u0dca","name_en":"POSTAL VOTES - JAFFNA DISTRICT","code":"10P","district":"Jaffna District","ed_code":"10","map_code":"0"},{"id":"109","name_si":"\u0dba\u0dcf\u0db4\u0db1\u0dba \u0daf\u0dd2\u0dc3\u0dca\u0dad\u0dca\u200d\u0dbb\u0dd2\u0d9a\u0dca\u0d9a\u0dba\u0dda \u0dc3\u0db8\u0dc3\u0dca\u0dad \u0db4\u0dca\u200d\u0dbb\u0dad\u0dd2\u0db5\u0dbd\u0dba","name_en":"FINAL DISTRICT RESULT - JAFFNA DISTRICT","code":"10Z","district":"Jaffna District","ed_code":"10","map_code":"0"},{"id":"110","name_si":"\u0db8\u0db1\u0dca\u0db1\u0dcf\u0dbb\u0db8 ","name_en":"MANNAR","code":"11A","district":"Vanni District","ed_code":"11","map_code":"90"},{"id":"111","name_si":"\u0db8\u0dd4\u0dbd\u0dad\u0dd2\u0dc0\u0dca ","name_en":"MULLAITIVU","code":"11C","district":"Vanni District","ed_code":"11","map_code":"92"},{"id":"112","name_si":"\u0dc0\u0dc0\u0dca\u0db1\u0dd2\u0dba\u0dcf\u0dc0 ","name_en":"VAVUNIYA","code":"11B","district":"Vanni District","ed_code":"11","map_code":"91"},{"id":"113","name_si":"\u0dc0\u0db1\u0dca\u0db1\u0dd2 \u0daf\u0dd2\u0dc3\u0dca\u0dad\u0dca\u200d\u0dbb\u0dd2\u0d9a\u0dca\u0d9a\u0dba - \u0dad\u0dd0\u0db4\u0dd0\u0dbd\u0dca","name_en":"POSTAL VOTES - VANNI DISTRICT","code":"11P","district":"Vanni District","ed_code":"11","map_code":"0"},{"id":"114","name_si":"\u0dc0\u0db1\u0dca\u0db1\u0dd2 \u0daf\u0dd2\u0dc3\u0dca\u0dad\u0dca\u200d\u0dbb\u0dd2\u0d9a\u0dca\u0d9a\u0dba\u0dda \u0dc3\u0db8\u0dc3\u0dca\u0dad \u0db4\u0dca\u200d\u0dbb\u0dad\u0dd2\u0db5\u0dbd\u0dba","name_en":"FINAL DISTRICT RESULT - VANNI DISTRICT","code":"11Z","district":"Vanni District","ed_code":"11","map_code":"0"},{"id":"115","name_si":"\u0d9a\u0dbd\u0dca\u0d9a\u0dd4\u0da9\u0dcf ","name_en":"KALKUDAH","code":"12A","district":"Batticaloa District","ed_code":"12","map_code":"93"},{"id":"116","name_si":"\u0db8\u0da9\u0d9a\u0dbd\u0db4\u0dd4\u0dc0 ","name_en":"BATTICALOA","code":"12B","district":"Batticaloa District","ed_code":"12","map_code":"94"},{"id":"117","name_si":"\u0db4\u0daf\u0dd2\u0dbb\u0dd4\u0db4\u0dca\u0db4\u0dd4 ","name_en":"PADIRUPPU","code":"12C","district":"Batticaloa District","ed_code":"12","map_code":"95"},{"id":"118","name_si":"\u0db8\u0da9\u0d9a\u0dbd\u0db4\u0dd4\u0dc0 \u0daf\u0dd2\u0dc3\u0dca\u0dad\u0dca\u200d\u0dbb\u0dd2\u0d9a\u0dca\u0d9a\u0dba - \u0dad\u0dd0\u0db4\u0dd0\u0dbd\u0dca","name_en":"POSTAL VOTES - BATTICALOA DICTRICT","code":"12P","district":"Batticaloa District","ed_code":"12","map_code":"0"},{"id":"119","name_si":"\u0db8\u0da9\u0d9a\u0dbd\u0db4\u0dd4\u0dc0 \u0daf\u0dd2\u0dc3\u0dca\u0dad\u0dca\u200d\u0dbb\u0dd2\u0d9a\u0dca\u0d9a\u0dba\u0dda \u0dc3\u0db8\u0dc3\u0dca\u0dad \u0db4\u0dca\u200d\u0dbb\u0dad\u0dd2\u0db5\u0dbd\u0dba","name_en":"FINAL DISTRICT RESULT - BATTICALOA DICTRICT","code":"12Z","district":"Batticaloa District","ed_code":"12","map_code":"0"},{"id":"120","name_si":"\u0d85\u0db8\u0dca\u0db4\u0dcf\u0dbb ","name_en":"AMPARA","code":"13A","district":"Digamadulla District","ed_code":"13","map_code":"96"},{"id":"121","name_si":"\u0dc3\u0db8\u0db1\u0dca\u0dad\u0dd4\u0dbb\u0dda","name_en":"SAMMANTURAI","code":"13B","district":"Digamadulla District","ed_code":"13","map_code":"97"},{"id":"122","name_si":"\u0d9a\u0dbd\u0dca\u0db8\u0dd4\u0dab\u0dda ","name_en":"KALMUNAI","code":"13C","district":"Digamadulla District","ed_code":"13","map_code":"98"},{"id":"123","name_si":"\u0db4\u0ddc\u0dad\u0dd4\u0dc0\u0dd2\u0dbd\u0dca","name_en":"POTUVIL","code":"13D","district":"Digamadulla District","ed_code":"13","map_code":"99"},{"id":"124","name_si":"\u0daf\u0dd2\u0d9c\u0dcf\u0db8\u0da9\u0dd4\u0dbd\u0dca\u0dbd \u0daf\u0dd2\u0dc3\u0dca\u0dad\u0dca\u200d\u0dbb\u0dd2\u0d9a\u0dca\u0d9a\u0dba - \u0dad\u0dd0\u0db4\u0dd0\u0dbd\u0dca","name_en":"POSTAL VOTES - DIGAMADULLA DISTRICT","code":"13P","district":"Digamadulla District","ed_code":"13","map_code":"0"},{"id":"125","name_si":"\u0daf\u0dd2\u0d9c\u0dcf\u0db8\u0da9\u0dd4\u0dbd\u0dca\u0dbd \u0daf\u0dd2\u0dc3\u0dca\u0dad\u0dca\u200d\u0dbb\u0dd2\u0d9a\u0dca\u0d9a\u0dba\u0dda \u0dc3\u0db8\u0dc3\u0dca\u0dad \u0db4\u0dca\u200d\u0dbb\u0dad\u0dd2\u0db5\u0dbd\u0dba","name_en":"FINAL DISTRICT RESULT - DIGAMADULLA DISTRICT","code":"13Z","district":"Digamadulla District","ed_code":"13","map_code":"0"},{"id":"126","name_si":"\u0dc3\u0dda\u0dbb\u0dd4\u0dc0\u0dcf\u0dc0\u0dd2\u0dbd ","name_en":"SERUWILA","code":"14A","district":"Trincomalee District","ed_code":"14","map_code":"100"},{"id":"127","name_si":"\u0dad\u0dca\u200d\u0dbb\u0dd2\u0d9a\u0dd4\u0dab\u0dcf\u0db8\u0dbd\u0dba ","name_en":"TRINCOMALEE","code":"14B","district":"Trincomalee District","ed_code":"14","map_code":"101"},{"id":"128","name_si":"\u0db8\u0dd4\u0dad\u0dd6\u0dbb\u0dca ","name_en":"MUTUR","code":"14C","district":"Trincomalee District","ed_code":"14","map_code":"102"},{"id":"129","name_si":"\u0dad\u0dca\u200d\u0dbb\u0dd2\u0d9a\u0dd4\u0dab\u0dcf\u0db8\u0dbd\u0dba \u0daf\u0dd2\u0dc3\u0dca\u0dad\u0dca\u200d\u0dbb\u0dd2\u0d9a\u0dca\u0d9a\u0dba - \u0dad\u0dd0\u0db4\u0dd0\u0dbd\u0dca","name_en":"POSTAL VOTES - TRINCOMALEE DISTRICT","code":"14P","district":"Trincomalee District","ed_code":"14","map_code":"0"},{"id":"130","name_si":"\u0dad\u0dca\u200d\u0dbb\u0dd2\u0d9a\u0dd4\u0dab\u0dcf\u0db8\u0dbd\u0dba \u0daf\u0dd2\u0dc3\u0dca\u0dad\u0dca\u200d\u0dbb\u0dd2\u0d9a\u0dca\u0d9a\u0dba\u0dda \u0dc3\u0db8\u0dc3\u0dca\u0dad \u0db4\u0dca\u200d\u0dbb\u0dad\u0dd2\u0db5\u0dbd\u0dba","name_en":"FINAL DISTRICT RESULT - TRINCOMALEE DISTRICT","code":"14Z","district":"Trincomalee District","ed_code":"14","map_code":"0"},{"id":"131","name_si":"\u0d9c\u0dbd\u0dca\u0d9c\u0db8\u0dd4\u0dc0 ","name_en":"GALGAMUWA","code":"15A","district":"Kurunegala District","ed_code":"15","map_code":"103"},{"id":"132","name_si":"\u0db1\u0dd2\u0d9a\u0dc0\u0dd0\u0dbb\u0da7\u0dd2\u0dba ","name_en":"NIKAWERATIYA","code":"15B","district":"Kurunegala District","ed_code":"15","map_code":"104"},{"id":"133","name_si":"\u0dba\u0dcf\u0db4\u0dc4\u0dd4\u0dc0 ","name_en":"YAPAHUWA","code":"15C","district":"Kurunegala District","ed_code":"15","map_code":"105"},{"id":"134","name_si":"\u0dc4\u0dd2\u0dbb\u0dd2\u0dba\u0dcf\u0dbd ","name_en":"HIRIYALA","code":"15D","district":"Kurunegala District","ed_code":"15","map_code":"106"},{"id":"135","name_si":"\u0dc0\u0dcf\u0dbb\u0dd2\u0dba\u0db4\u0ddc\u0dbd ","name_en":"WARIYAPOLA","code":"15E","district":"Kurunegala District","ed_code":"15","map_code":"107"},{"id":"136","name_si":"\u0db4\u0dac\u0dd4\u0dc0\u0dc3\u0dca\u0db1\u0dd4\u0dc0\u0dbb ","name_en":"PANDUWASNUWARA","code":"15F","district":"Kurunegala District","ed_code":"15","map_code":"108"},{"id":"137","name_si":"\u0db6\u0dd2\u0d82\u0d9c\u0dd2\u0dbb\u0dd2\u0dba ","name_en":"BINGIRIYA","code":"15G","district":"Kurunegala District","ed_code":"15","map_code":"109"},{"id":"138","name_si":"\u0d9a\u0da7\u0dd4\u0d9c\u0db8\u0dca\u0db4\u0ddc\u0dbd ","name_en":"KATUGAMPOLA","code":"15H","district":"Kurunegala District","ed_code":"15","map_code":"110"},{"id":"139","name_si":"\u0d9a\u0dd4\u0dbd\u0dd2\u0dba\u0dcf\u0db4\u0dd2\u0da7\u0dd2\u0dba ","name_en":"KULIYAPITIYA","code":"15I","district":"Kurunegala District","ed_code":"15","map_code":"111"},{"id":"140","name_si":"\u0daf\u0db9\u0daf\u0dd9\u0dab\u0dd2\u0dba ","name_en":"DAMBADENIYA","code":"15J","district":"Kurunegala District","ed_code":"15","map_code":"112"},{"id":"141","name_si":"\u0db4\u0ddc\u0dbd\u0dca\u0d9c\u0dc4\u0dc0\u0dd9\u0dbd ","name_en":"POLGAHAWELA","code":"15K","district":"Kurunegala District","ed_code":"15","map_code":"113"},{"id":"142","name_si":"\u0d9a\u0dd4\u0dbb\u0dd4\u0dab\u0dd1\u0d9c\u0dbd ","name_en":"KURUNEGALA","code":"15L","district":"Kurunegala District","ed_code":"15","map_code":"114"},{"id":"143","name_si":"\u0db8\u0dcf\u0dc0\u0dad\u0d9c\u0db8 ","name_en":"MAWATHAGAMA","code":"15M","district":"Kurunegala District","ed_code":"15","map_code":"115"},{"id":"144","name_si":"\u0daf\u0ddc\u0da9\u0d82\u0d9c\u0dc3\u0dca\u0dbd\u0db1\u0dca\u0daf ","name_en":"DODANGASLANDA","code":"15N","district":"Kurunegala District","ed_code":"15","map_code":"116"},{"id":"145","name_si":"\u0d9a\u0dd4\u0dbb\u0dd4\u0dab\u0dd1\u0d9c\u0dbd \u0daf\u0dd2\u0dc3\u0dca\u0dad\u0dca\u200d\u0dbb\u0dd2\u0d9a\u0dca\u0d9a\u0dba - \u0dad\u0dd0\u0db4\u0dd0\u0dbd\u0dca","name_en":"POSTAL VOTES - KURUNEGALA DISTRICT","code":"15P","district":"Kurunegala District","ed_code":"15","map_code":"0"},{"id":"146","name_si":"\u0d9a\u0dd4\u0dbb\u0dd4\u0dab\u0dd1\u0d9c\u0dbd \u0daf\u0dd2\u0dc3\u0dca\u0dad\u0dca\u200d\u0dbb\u0dd2\u0d9a\u0dca\u0d9a\u0dba\u0dda \u0dc3\u0db8\u0dc3\u0dca\u0dad \u0db4\u0dca\u200d\u0dbb\u0dad\u0dd2\u0db5\u0dbd\u0dba","name_en":"FINAL DISTRICT RESULT - KURUNEGALA DISTRICT","code":"15Z","district":"Kurunegala District","ed_code":"15","map_code":"0"},{"id":"147","name_si":"\u0db4\u0dd4\u0dad\u0dca\u0dad\u0dbd\u0db8 ","name_en":"PUTTALAM","code":"16A","district":"Puttalam District","ed_code":"16","map_code":"117"},{"id":"148","name_si":"\u0d86\u0dab\u0db8\u0da9\u0dd4\u0dc0 ","name_en":"ANAMADUWA","code":"16B","district":"Puttalam District","ed_code":"16","map_code":"118"},{"id":"149","name_si":"\u0dc4\u0dbd\u0dcf\u0dc0\u0dad ","name_en":"CHILAW","code":"16C","district":"Puttalam District","ed_code":"16","map_code":"119"},{"id":"150","name_si":"\u0db1\u0dcf\u0dad\u0dca\u0dad\u0db1\u0dca\u0da9\u0dd2\u0dba ","name_en":"NATTANDIYA","code":"16D","district":"Puttalam District","ed_code":"16","map_code":"120"},{"id":"151","name_si":"\u0dc0\u0dd9\u0db1\u0dca\u0db1\u0db4\u0dca\u0db4\u0dd4\u0dc0 ","name_en":"WENNAPPUWA","code":"16E","district":"Puttalam District","ed_code":"16","map_code":"121"},{"id":"152","name_si":"\u0db4\u0dd4\u0dad\u0dca\u0dad\u0dbd\u0db8 \u0daf\u0dd2\u0dc3\u0dca\u0dad\u0dca\u200d\u0dbb\u0dd2\u0d9a\u0dca\u0d9a\u0dba - \u0dad\u0dd0\u0db4\u0dd0\u0dbd\u0dca","name_en":"POSTAL VOTES - PUTTALAM DISTRICT","code":"16P","district":"Puttalam District","ed_code":"16","map_code":"0"},{"id":"153","name_si":"\u0db4\u0dd4\u0dad\u0dca\u0dad\u0dbd\u0db8 \u0daf\u0dd2\u0dc3\u0dca\u0dad\u0dca\u200d\u0dbb\u0dd2\u0d9a\u0dca\u0d9a\u0dba\u0dda \u0dc3\u0db8\u0dc3\u0dca\u0dad \u0db4\u0dca\u200d\u0dbb\u0dad\u0dd2\u0db5\u0dbd\u0dba","name_en":"FINAL DISTRICT RESULT - PUTTALAM DISTRICT","code":"16Z","district":"Puttalam District","ed_code":"16","map_code":"0"},{"id":"154","name_si":"\u0db8\u0dd0\u0daf\u0dc0\u0da0\u0dca\u0da0\u0dd2\u0dba ","name_en":"MEDAWACHCHIYA","code":"17A","district":"Anuradhapura District","ed_code":"17","map_code":"122"},{"id":"155","name_si":"\u0dc4\u0ddc\u0dbb\u0ddc\u0dc0\u0dca\u0db4\u0dad\u0dcf\u0db1 ","name_en":"HOROWUPOTANA","code":"17B","district":"Anuradhapura District","ed_code":"17","map_code":"123"},{"id":"156","name_si":"\u0d85\u0db1\u0dd4\u0dbb\u0dcf\u0db0\u0db4\u0dd4\u0dbb-\u0db1\u0dd0\u0d9c\u0dd9\u0db1\u0dc4\u0dd2\u0dbb","name_en":"ANURADHAPURA-EAST","code":"17C","district":"Anuradhapura District","ed_code":"17","map_code":"124"},{"id":"157","name_si":"\u0d85\u0db1\u0dd4\u0dbb\u0dcf\u0db0\u0db4\u0dd4\u0dbb-\u0db6\u0da7\u0dc4\u0dd2\u0dbb ","name_en":"ANURADHAPURA-WEST","code":"17D","district":"Anuradhapura District","ed_code":"17","map_code":"125"},{"id":"158","name_si":"\u0d9a\u0dbd\u0dcf\u0dc0\u0dd0\u0dc0","name_en":"KALAWEWA","code":"17E","district":"Anuradhapura District","ed_code":"17","map_code":"126"},{"id":"159","name_si":"\u0db8\u0dd2\u0dc4\u0dd2\u0db1\u0dca\u0dad\u0dbd\u0dda ","name_en":"MIHINTALE","code":"17F","district":"Anuradhapura District","ed_code":"17","map_code":"127"},{"id":"160","name_si":"\u0d9a\u0dd0\u0d9a\u0dd2\u0dbb\u0dcf\u0dc0 ","name_en":"KEKIRAWA","code":"17G","district":"Anuradhapura District","ed_code":"17","map_code":"128"},{"id":"161","name_si":"\u0d85\u0db1\u0dd4\u0dbb\u0dcf\u0db0\u0db4\u0dd4\u0dbb \u0daf\u0dd2\u0dc3\u0dca\u0dad\u0dca\u200d\u0dbb\u0dd2\u0d9a\u0dca\u0d9a\u0dba - \u0dad\u0dd0\u0db4\u0dd0\u0dbd\u0dca","name_en":"POSTAL VOTES - ANURADHAPURA DISTRICT","code":"17P","district":"Anuradhapura District","ed_code":"17","map_code":"0"},{"id":"162","name_si":"\u0d85\u0db1\u0dd4\u0dbb\u0dcf\u0db0\u0db4\u0dd4\u0dbb \u0daf\u0dd2\u0dc3\u0dca\u0dad\u0dca\u200d\u0dbb\u0dd2\u0d9a\u0dca\u0d9a\u0dba\u0dda \u0dc3\u0db8\u0dc3\u0dca\u0dad \u0db4\u0dca\u200d\u0dbb\u0dad\u0dd2\u0db5\u0dbd\u0dba","name_en":"FINAL DISTRICT RESULT - ANURADHAPURA DISTRICT","code":"17Z","district":"Anuradhapura District","ed_code":"17","map_code":"0"},{"id":"163","name_si":"\u0db8\u0dd2\u0db1\u0dca\u0db1\u0dda\u0dbb\u0dd2\u0dba ","name_en":"MINNERIYA","code":"18A","district":"Polonnaruwa District","ed_code":"18","map_code":"129"},{"id":"164","name_si":"\u0db8\u0dd0\u0daf\u0dd2\u0dbb\u0dd2\u0d9c\u0dd2\u0dbb\u0dd2\u0dba ","name_en":"MEDIRIGIRIYA","code":"18B","district":"Polonnaruwa District","ed_code":"18","map_code":"130"},{"id":"165","name_si":"\u0db4\u0ddc\u0dbd\u0ddc\u0db1\u0dca\u0db1\u0dbb\u0dd4\u0dc0 ","name_en":"POLONNARUWA","code":"18C","district":"Polonnaruwa District","ed_code":"18","map_code":"131"},{"id":"166","name_si":"\u0db4\u0ddc\u0dbd\u0ddc\u0db1\u0dca\u0db1\u0dbb\u0dd4\u0dc0 \u0daf\u0dd2\u0dc3\u0dca\u0dad\u0dca\u200d\u0dbb\u0dd2\u0d9a\u0dca\u0d9a\u0dba - \u0dad\u0dd0\u0db4\u0dd0\u0dbd\u0dca","name_en":"POSTAL VOTES - POLONNARUWA DISTRICT","code":"18P","district":"Polonnaruwa District","ed_code":"18","map_code":"0"},{"id":"167","name_si":"\u0db4\u0ddc\u0dbd\u0ddc\u0db1\u0dca\u0db1\u0dbb\u0dd4\u0dc0 \u0daf\u0dd2\u0dc3\u0dca\u0dad\u0dca\u200d\u0dbb\u0dd2\u0d9a\u0dca\u0d9a\u0dba\u0dda \u0dc3\u0db8\u0dc3\u0dca\u0dad \u0db4\u0dca\u200d\u0dbb\u0dad\u0dd2\u0db5\u0dbd\u0dba","name_en":"FINAL DISTRICT RESULT - POLONNARUWA DISTRICT","code":"18Z","district":"Polonnaruwa District","ed_code":"18","map_code":"0"},{"id":"168","name_si":"\u0db8\u0dc4\u0dd2\u0dba\u0d82\u0d9c\u0db1\u0dba ","name_en":"MAHIYANGANE","code":"19A","district":"Badulla District","ed_code":"19","map_code":"132"},{"id":"169","name_si":"\u0dc0\u0dd2\u0dba\u0dbd\u0dd4\u0dc0 ","name_en":"WIYALUWA","code":"19B","district":"Badulla District","ed_code":"19","map_code":"133"},{"id":"170","name_si":"\u0db4\u0dc3\u0dca\u0dc3\u0dbb ","name_en":"PASSARA","code":"19C","district":"Badulla District","ed_code":"19","map_code":"134"},{"id":"171","name_si":"\u0db6\u0daf\u0dd4\u0dbd\u0dca\u0dbd","name_en":"BADULLA","code":"19D","district":"Badulla District","ed_code":"19","map_code":"135"},{"id":"172","name_si":"\u0dc4\u0dcf\u0dbd\u0dd2 \u0d87\u0dbd ","name_en":"HALI-ELA","code":"19E","district":"Badulla District","ed_code":"19","map_code":"136"},{"id":"173","name_si":"\u0d8c\u0dc0-\u0db4\u0dbb\u0dab\u0d9c\u0db8 ","name_en":"UVA-PARANAGAMA","code":"19F","district":"Badulla District","ed_code":"19","map_code":"137"},{"id":"174","name_si":"\u0dc0\u0dd0\u0dbd\u0dd2\u0db8\u0da9 ","name_en":"WELIMADA","code":"19G","district":"Badulla District","ed_code":"19","map_code":"138"},{"id":"175","name_si":"\u0db6\u0dab\u0dca\u0da9\u0dcf\u0dbb\u0dc0\u0dd9\u0dbd ","name_en":"BANDARAWELA","code":"19H","district":"Badulla District","ed_code":"19","map_code":"139"},{"id":"176","name_si":"\u0dc4\u0db4\u0dd4\u0dad\u0dbd\u0dda ","name_en":"HAPUTALE","code":"19I","district":"Badulla District","ed_code":"19","map_code":"140"},{"id":"177","name_si":"\u0db6\u0daf\u0dd4\u0dbd\u0dca\u0dbd \u0daf\u0dd2\u0dc3\u0dca\u0dad\u0dca\u200d\u0dbb\u0dd2\u0d9a\u0dca\u0d9a\u0dba - \u0dad\u0dd0\u0db4\u0dd0\u0dbd\u0dca","name_en":"POSTAL VOTES - BADULLA DISTRICT","code":"19P","district":"Badulla District","ed_code":"19","map_code":"0"},{"id":"178","name_si":"\u0db6\u0daf\u0dd4\u0dbd\u0dca\u0dbd \u0daf\u0dd2\u0dc3\u0dca\u0dad\u0dca\u200d\u0dbb\u0dd2\u0d9a\u0dca\u0d9a\u0dba\u0dda \u0dc3\u0db8\u0dc3\u0dca\u0dad \u0db4\u0dca\u200d\u0dbb\u0dad\u0dd2\u0db5\u0dbd\u0dba","name_en":"FINAL DISTRICT RESULT - BADULLA DISTRICT","code":"19Z","district":"Badulla District","ed_code":"19","map_code":"0"},{"id":"179","name_si":"\u0db6\u0dd2\u0db6\u0dd2\u0dbd ","name_en":"BIBILE","code":"20A","district":"Monaragala District","ed_code":"20","map_code":"141"},{"id":"180","name_si":"\u0db8\u0ddc\u0db1\u0dbb\u0dcf\u0d9c\u0dbd ","name_en":"MONERAGALA","code":"20B","district":"Monaragala District","ed_code":"20","map_code":"142"},{"id":"181","name_si":"\u0dc0\u0dd0\u0dbd\u0dca\u0dbd\u0dc0\u0dcf\u0dba ","name_en":"WELLAWAYA","code":"20C","district":"Monaragala District","ed_code":"20","map_code":"143"},{"id":"182","name_si":"\u0db8\u0ddc\u0db1\u0dbb\u0dcf\u0d9c\u0dbd \u0daf\u0dd2\u0dc3\u0dca\u0dad\u0dca\u200d\u0dbb\u0dd2\u0d9a\u0dca\u0d9a\u0dba - \u0dad\u0dd0\u0db4\u0dd0\u0dbd\u0dca","name_en":"POSTAL VOTES - MONERAGALA DISTRICT","code":"20P","district":"Monaragala District","ed_code":"20","map_code":"0"},{"id":"183","name_si":"\u0db8\u0ddc\u0db1\u0dbb\u0dcf\u0d9c\u0dbd \u0daf\u0dd2\u0dc3\u0dca\u0dad\u0dca\u200d\u0dbb\u0dd2\u0d9a\u0dca\u0d9a\u0dba\u0dda \u0dc3\u0db8\u0dc3\u0dca\u0dad \u0db4\u0dca\u200d\u0dbb\u0dad\u0dd2\u0db5\u0dbd\u0dba","name_en":"FINAL DISTRICT RESULT - MONERAGALA DISTRICT","code":"20Z","district":"Monaragala District","ed_code":"20","map_code":"0"},{"id":"184","name_si":"\u0d87\u0dc4\u0dd0\u0dbd\u0dd2\u0dba\u0d9c\u0ddc\u0da9 ","name_en":"EHELIYAGODA","code":"21A","district":"Ratnapura District","ed_code":"21","map_code":"144"},{"id":"185","name_si":"\u0dbb\u0dad\u0dca\u0db1\u0db4\u0dd4\u0dbb","name_en":"RATNAPURA","code":"21B","district":"Ratnapura District","ed_code":"21","map_code":"145"},{"id":"186","name_si":"\u0db4\u0dd0\u0dbd\u0dca\u0db8\u0da9\u0dd4\u0dbd\u0dca\u0dbd","name_en":"PELMADULLA","code":"21C","district":"Ratnapura District","ed_code":"21","map_code":"146"},{"id":"187","name_si":"\u0db6\u0dbd\u0d82\u0d9c\u0ddc\u0da9 ","name_en":"BALANGODA","code":"21D","district":"Ratnapura District","ed_code":"21","map_code":"147"},{"id":"188","name_si":"\u0dbb\u0d9a\u0dca\u0dc0\u0dcf\u0db1 ","name_en":"RAKWANA","code":"21E","district":"Ratnapura District","ed_code":"21","map_code":"148"},{"id":"189","name_si":"\u0db1\u0dd2\u0dc0\u0dd2\u0dad\u0dd2\u0d9c\u0dbd ","name_en":"NIVITIGALA","code":"21F","district":"Ratnapura District","ed_code":"21","map_code":"149"},{"id":"190","name_si":"\u0d9a\u0dbd\u0dc0\u0dcf\u0db1 ","name_en":"KALAWANA","code":"21G","district":"Ratnapura District","ed_code":"21","map_code":"150"},{"id":"191","name_si":"\u0d9a\u0ddc\u0dbd\u0ddc\u0db1\u0dca\u0db1 ","name_en":"KOLONNA","code":"21H","district":"Ratnapura District","ed_code":"21","map_code":"151"},{"id":"192","name_si":"\u0dbb\u0dad\u0dca\u0db1\u0db4\u0dd4\u0dbb \u0daf\u0dd2\u0dc3\u0dca\u0dad\u0dca\u200d\u0dbb\u0dd2\u0d9a\u0dca\u0d9a\u0dba - \u0dad\u0dd0\u0db4\u0dd0\u0dbd\u0dca","name_en":"POSTAL VOTES - RATNAPURA DISTRICT","code":"21P","district":"Ratnapura District","ed_code":"21","map_code":"0"},{"id":"193","name_si":"\u0dbb\u0dad\u0dca\u0db1\u0db4\u0dd4\u0dbb \u0daf\u0dd2\u0dc3\u0dca\u0dad\u0dca\u200d\u0dbb\u0dd2\u0d9a\u0dca\u0d9a\u0dba\u0dda \u0dc3\u0db8\u0dc3\u0dca\u0dad \u0db4\u0dca\u200d\u0dbb\u0dad\u0dd2\u0db5\u0dbd\u0dba","name_en":"FINAL DISTRICT RESULT - RATNAPURA DISTRICT","code":"21Z","district":"Ratnapura District","ed_code":"21","map_code":"0"},{"id":"194","name_si":"\u0daf\u0dd0\u0da9\u0dd2\u0d9c\u0db8 ","name_en":"DEDIGAMA","code":"22A","district":"Kegalle District","ed_code":"22","map_code":"152"},{"id":"195","name_si":"\u0d9c\u0dbd\u0dd2\u0d9c\u0db8\u0dd4\u0dc0 ","name_en":"GALIGAMUWA","code":"22B","district":"Kegalle District","ed_code":"22","map_code":"153"},{"id":"196","name_si":"\u0d9a\u0dd1\u0d9c\u0dbd\u0dca\u0dbd ","name_en":"KEGALLE","code":"22C","district":"Kegalle District","ed_code":"22","map_code":"154"},{"id":"197","name_si":"\u0dbb\u0db9\u0dd4\u0d9a\u0dca\u0d9a\u0db1 ","name_en":"RAMBUKKANA","code":"22D","district":"Kegalle District","ed_code":"22","map_code":"155"},{"id":"198","name_si":"\u0db8\u0dcf\u0dc0\u0db1\u0dd0\u0dbd\u0dca\u0dbd ","name_en":"MAWANELLA","code":"22E","district":"Kegalle District","ed_code":"22","map_code":"156"},{"id":"199","name_si":"\u0d85\u0dbb\u0dab\u0dcf\u0dba\u0d9a ","name_en":"ARANAYAKE","code":"22F","district":"Kegalle District","ed_code":"22","map_code":"157"},{"id":"200","name_si":"\u0dba\u0da7\u0dd2\u0dba\u0db1\u0dca\u0dad\u0ddc\u0da7 ","name_en":"YATIYANTOTA","code":"22G","district":"Kegalle District","ed_code":"22","map_code":"158"},{"id":"201","name_si":"\u0dbb\u0dd4\u0dc0\u0db1\u0dca\u0dc0\u0dd0\u0dbd\u0dca\u0dbd ","name_en":"RUWANWELLA","code":"22H","district":"Kegalle District","ed_code":"22","map_code":"159"},{"id":"202","name_si":"\u0daf\u0dd0\u0dbb\u0dab\u0dd2\u0dba\u0d9c\u0dbd ","name_en":"DERANIYAGALA","code":"22I","district":"Kegalle District","ed_code":"22","map_code":"160"},{"id":"203","name_si":"\u0d9a\u0dd1\u0d9c\u0dbd\u0dca\u0dbd \u0daf\u0dd2\u0dc3\u0dca\u0dad\u0dca\u200d\u0dbb\u0dd2\u0d9a\u0dca\u0d9a\u0dba - \u0dad\u0dd0\u0db4\u0dd0\u0dbd\u0dca","name_en":"POSTAL VOTES - KEGALLE DISTRICT","code":"22P","district":"Kegalle District","ed_code":"22","map_code":"0"},{"id":"204","name_si":"\u0d9a\u0dd1\u0d9c\u0dbd\u0dca\u0dbd \u0daf\u0dd2\u0dc3\u0dca\u0dad\u0dca\u200d\u0dbb\u0dd2\u0d9a\u0dca\u0d9a\u0dba\u0dda \u0dc3\u0db8\u0dc3\u0dca\u0dad \u0db4\u0dca\u200d\u0dbb\u0dad\u0dd2\u0db5\u0dbd\u0dba","name_en":"FINAL DISTRICT RESULT - KEGALLE DISTRICT","code":"22Z","district":"Kegalle District","ed_code":"22","map_code":"0"},{"id":"205","name_si":"\u0dc3\u0db8\u0dc3\u0dca\u0dad \u0db4\u0dca\u200d\u0dbb\u0dad\u0dd2\u0db5\u0dbd\u0dba","name_en":"ALL ISLAND RESULT","code":"AIVOT","district":"","ed_code":"0","map_code":"0"},{"id":"206","name_si":"\u0daf\u0dd0\u0db1\u0da7 \u0dbd\u0dd0\u0db6\u0dd3 \u0d87\u0dad\u0dd2 \u0dc3\u0db8\u0dc3\u0dca\u0dad \u0db4\u0dca\u200d\u0dbb\u0dad\u0dd2\u0db5\u0dbd\u0dba","name_en":"ALL ISLAND CUMULATIVE RESULT","code":"AICUM","district":"","ed_code":"0","map_code":"0"}]